NORAD_CAT_ID,OBJECT_NAME,OBJECT_TYPE,EPOCH,MEAN_MOTION,ECCENTRICITY,INCLINATION,RA_OF_ASC_NODE,ARG_OF_PERICENTER,MEAN_ANOMALY,BSTAR,MEAN_MOTION_DOT,MEAN_MOTION_DDOT,TLE_LINE0,TLE_LINE1,TLE_LINE2,SEMIMAJOR_AXIS,PERIOD,APOGEE,PERIGEE,DECAYED
54078.0,STARLINK-5138,PAYLOAD,2023-01-04 14:00:01,15.40318033,8.83e-05,53.2168,133.9281,16.3588,242.5298,-0.024712,-0.00927603,0.0,0 STARLINK-5138,1 54078U 22136AD  23004.58335648 -.00927603  00000-0 -24712-1 0  9995,2 54078  53.2168 133.9281 0000883  16.3588 242.5298 15.40318033  1302,6823.307,93.487,445.774,444.569,0.0
54078.0,STARLINK-5138,PAYLOAD,2023-01-04 16:00:00,15.40144345,0.000108,53.2172,133.5361,26.7762,334.3782,-0.024394,-0.00911807,0.0,0 STARLINK-5138,1 54078U 22136AD  23004.66667824 -.00911807  00000-0 -24394-1 0  9993,2 54078  53.2172 133.5361 0001080  26.7762 334.3782 15.40144345 12450,6823.82,93.498,446.422,444.948,0.0
54078.0,STARLINK-5138,PAYLOAD,2023-01-04 22:00:00,15.39686466,0.0001564,53.2162,132.3591,39.9785,267.8458,-0.0260459999999999,-0.00955024,0.0,0 STARLINK-5138,1 54078U 22136AD  23004.91667824 -.00955024  00000-0 -26046-1 0  9996,2 54078  53.2162 132.3591 0001564  39.9785 267.8458 15.39686466  1304,6825.1730000000025,93.526,448.105,445.97,0.0
54078.0,STARLINK-5138,PAYLOAD,2023-01-05 14:00:01,15.38364318,0.0001457,53.2169,129.2246,52.0215,351.4845,-0.026324,-0.00926525,0.0,0 STARLINK-5138,1 54078U 22136AD  23005.58334491 -.00926525  00000-0 -26324-1 0  9994,2 54078  53.2169 129.2246 0001457  52.0215 351.4845 15.38364318 12599,6829.083000000001,93.606,451.943,449.953,0.0
54078.0,STARLINK-5138,PAYLOAD,2023-01-05 20:00:01,15.37866655,0.000132,53.2172,128.0513,51.5308,297.0493,-0.026297,-0.00911851,0.0,0 STARLINK-5138,1 54078U 22136AD  23005.83334491 -.00911851  00000-0 -26297-1 0  9997,2 54078  53.2172 128.0513 0001320  51.5308 297.0493 15.37866655  1304,6830.556,93.636,453.323,451.519,0.0
54078.0,STARLINK-5138,PAYLOAD,2023-01-06 22:00:00,15.35757311,0.0001621,53.216,122.9748,46.7131,178.7511,-0.028503,-0.00922009,0.0,0 STARLINK-5138,1 54078U 22136AD  23006.91667824 -.00922009  00000-0 -28503-1 0  9995,2 54078  53.2160 122.9748 0001621  46.7131 178.7511 15.35757311 12807,6836.809,93.765,459.782,457.566,0.0
54078.0,STARLINK-5138,PAYLOAD,2023-01-07 06:00:00,15.35098636,0.0001538,53.2166,121.4148,47.8115,221.1907,-0.028744,-0.00911216,0.0,0 STARLINK-5138,1 54078U 22136AD  23007.25001157 -.00911216  00000-0 -28744-1 0  9999,2 54078  53.2166 121.4148 0001538  47.8115 221.1907 15.35098636  1305,6838.765,93.805,461.681,459.578,0.0
54078.0,STARLINK-5138,PAYLOAD,2023-01-08 00:00:00,15.33635008,0.0001578,53.2171,117.9141,46.5676,47.5241,-0.030169,-0.00912532,0.0,0 STARLINK-5138,1 54078U 22136AD  23008.00001157 -.00912532  00000-0 -30169-1 0  9999,2 54078  53.2171 117.9141 0001578  46.5676  47.5241 15.33635008  1305,6843.115,93.895,466.06,463.9,0.0
54078.0,STARLINK-5138,PAYLOAD,2023-01-08 06:00:00,15.33146534,0.0001579,53.2166,116.7481,40.4004,354.5081,-0.030618,-0.00911898,0.0,0 STARLINK-5138,1 54078U 22136AD  23008.25001157 -.00911898  00000-0 -30618-1 0  9999,2 54078  53.2166 116.7481 0001579  40.4004 354.5081 15.33146534 13006,6844.568,93.924,467.514,465.353,0.0
54078.0,STARLINK-5138,PAYLOAD,2023-01-08 14:00:01,15.32498624,0.000158,53.2168,115.1973,50.5378,24.773000000000003,-0.03144,-0.0091691,0.0,0 STARLINK-5138,1 54078U 22136AD  23008.58334491 -.00916910  00000-0 -31440-1 0  9999,2 54078  53.2168 115.1973 0001580  50.5378  24.7730 15.32498624  1301,6846.496999999999,93.964,469.444,467.281,0.0
54078.0,STARLINK-5138,PAYLOAD,2023-01-08 22:00:00,15.31856368,0.0001615,53.2165,113.646,41.6563,73.2727,-0.032519,-0.00928327,0.0,0 STARLINK-5138,1 54078U 22136AD  23008.91667824 -.00928327  00000-0 -32519-1 0  9998,2 54078  53.2165 113.6460 0001615  41.6563  73.2727 15.31856368  1305,6848.411,94.004,471.382,469.17,0.0
54078.0,STARLINK-5138,PAYLOAD,2023-01-09 08:00:01,15.31030039,0.0001781,53.2171,111.7084,40.7792,212.6473,-0.032657,-0.0091004,0.0,0 STARLINK-5138,1 54078U 22136AD  23009.33335648 -.00910040  00000-0 -32657-1 0  9997,2 54078  53.2171 111.7084 0001781  40.7792 212.6473 15.31030039 13175,6850.875,94.054,473.96,471.52,0.0
54078.0,STARLINK-5138,PAYLOAD,2023-01-09 14:00:01,15.30538097,0.0001591,53.2169,110.5492,51.519,140.3146,-0.032987,-0.0090556,0.0,0 STARLINK-5138,1 54078U 22136AD  23009.58334491 -.00905560  00000-0 -32987-1 0  9996,2 54078  53.2169 110.5492 0001591  51.5190 140.3146 15.30538097  1305,6852.343000000002,94.085,475.298,473.11800000000005,0.0
54078.0,STARLINK-5138,PAYLOAD,2023-01-10 00:00:00,15.29730046,0.0001548,53.2174,108.6153,41.3721,286.9318,-0.034177,-0.00914133,0.0,0 STARLINK-5138,1 54078U 22136AD  23010.00001157 -.00914133  00000-0 -34177-1 0  9994,2 54078  53.2174 108.6153 0001548  41.3721 286.9318 15.29730046  1306,6854.755999999999,94.134,477.682,475.56,0.0
54078.0,STARLINK-5138,PAYLOAD,2023-01-10 10:00:00,15.28915673,0.0001944,53.2173,106.6854,36.0183,67.5349,-0.034992,-0.00912804,0.0,0 STARLINK-5138,1 54078U 22136AD  23010.41667824 -.00912804  00000-0 -34992-1 0  9996,2 54078  53.2173 106.6854 0001944  36.0183  67.5349 15.28915673 13337,6857.19,94.184,480.388,477.721,0.0
54078.0,STARLINK-5138,PAYLOAD,2023-01-10 14:00:01,15.28590112,0.0001463,53.2171,105.9151,54.0559,247.2542,-0.035331,-0.00923789,0.0,0 STARLINK-5138,1 54078U 22136AD  23010.58334491 -.00923789  00000-0 -35331-1 0  9997,2 54078  53.2171 105.9151 0001463  54.0559 247.2542 15.28590112  1303,6858.163000000001,94.204,481.031,479.025,0.0
54078.0,STARLINK-5138,PAYLOAD,2023-01-10 22:00:00,15.27955238,0.0001857,53.2166,104.3725,33.1914,303.0404,-0.03703,-0.00947678,0.0,0 STARLINK-5138,1 54078U 22136AD  23010.91667824 -.00947678  00000-0 -37030-1 0  9994,2 54078  53.2166 104.3725 0001857  33.1914 303.0404 15.27955238  1308,6860.063,94.244,483.202,480.654,0.0
54078.0,STARLINK-5138,PAYLOAD,2023-01-11 14:00:01,15.26637711,0.000197,53.2175,101.2942,32.2293,11.5193,-0.037563,-0.00925107,0.0,0 STARLINK-5138,1 54078U 22136AD  23011.58334491 -.00925107  00000-0 -37563-1 0  9993,2 54078  53.2175 101.2942 0001970  32.2293  11.5193 15.26637711  1309,6864.009,94.325,487.226,484.522,0.0
54078.0,STARLINK-5138,PAYLOAD,2023-01-11 16:00:00,15.26469438,0.0002046,53.2175,100.9103,33.674,108.2951,-0.037353,-0.00915946,0.0,0 STARLINK-5138,1 54078U 22136AD  23011.66667824 -.00915946  00000-0 -37353-1 0  9998,2 54078  53.2175 100.9103 0002046  33.6740 108.2951 15.26469438 13534,6864.514,94.335,487.783,484.974,0.0
54078.0,STARLINK-5138,PAYLOAD,2023-01-11 22:00:00,15.2598706,0.0001951,53.2174,99.7563,31.8421,44.488,-0.038298,-0.00924759,0.0,0 STARLINK-5138,1 54078U 22136AD  23011.91667824 -.00924759  00000-0 -38298-1 0  9997,2 54078  53.2174  99.7563 0001951  31.8421  44.4880 15.25987060  1307,6865.96,94.365,489.165,486.486,0.0
54078.0,STARLINK-5138,PAYLOAD,2023-01-12 22:00:00,15.24041336,0.0001259,53.2136,95.153,78.7333,90.6845,-0.041524,-0.00943874,0.0,0 STARLINK-5138,1 54078U 22136AD  23012.91667824 -.00943874  00000-0 -41524-1 0  9993,2 54078  53.2136  95.1530 0001259  78.7333  90.6845 15.24041336 13721,6871.803000000001,94.486,494.533,492.802,0.0
54078.0,STARLINK-5138,PAYLOAD,2023-01-13 14:00:01,15.22700722,0.000137,53.2137,92.0932,74.4999,153.0487,-0.039675,-0.00861399,0.0,0 STARLINK-5138,1 54078U 22136AD  23013.58334491 -.00861399  00000-0 -39675-1 0  9993,2 54078  53.2137  92.0932 0001370  74.4999 153.0487 15.22700722  1305,6875.835,94.569,498.642,496.758,0.0
54078.0,STARLINK-5138,PAYLOAD,2023-01-13 22:00:00,15.22082376,0.0001229,53.2138,90.5638,78.1716,177.2579,-0.043546,-0.00934411,0.0,0 STARLINK-5138,1 54078U 22136AD  23013.91667824 -.00934411  00000-0 -43546-1 0  9997,2 54078  53.2138  90.5638 0001229  78.1716 177.2579 15.22082376  1301,6877.696999999999,94.607,500.408,498.717,0.0
54078.0,STARLINK-5138,PAYLOAD,2023-01-14 08:00:01,15.21287672,0.0001193,53.2139,88.6561,77.0468,302.1355,-0.046099,-0.00963813,0.0,0 STARLINK-5138,1 54078U 22136AD  23014.33334491 -.00963813  00000-0 -46099-1 0  9999,2 54078  53.2139  88.6561 0001193  77.0468 302.1355 15.21287672 13935,6880.093000000001,94.657,502.778,501.137,0.0
54078.0,STARLINK-5138,PAYLOAD,2023-01-14 12:00:00,15.20734456,0.0001315,53.2171,87.8962,80.8368,131.5105,-0.0113099999999999,-0.0024406999999999,0.0,0 STARLINK-5138,1 54078U 22136AD  23014.50001157 -.00244070  00000-0 -11310-1 0  9993,2 54078  53.2171  87.8962 0001315  80.8368 131.5105 15.20734456 13960,6881.761,94.691,504.531,502.721,0.0
54078.0,STARLINK-5138,PAYLOAD,2023-01-15 00:00:00,15.19936654,0.000113,53.2141,85.6076,83.9523,346.7191,-0.04342,-0.0087873999999999,0.0,0 STARLINK-5138,1 54078U 22136AD  23015.00001157 -.00878740  00000-0 -43420-1 0  9993,2 54078  53.2141  85.6076 0001130  83.9523 346.7191 15.19936654 14037,6884.169,94.741,506.812,505.256,0.0
54078.0,STARLINK-5138,PAYLOAD,2023-01-15 14:00:01,15.18796455,0.0001142,53.2144,82.9478,73.7412,309.3992,-0.044583,-0.0087317,0.0,0 STARLINK-5138,1 54078U 22136AD  23015.58334491 -.00873170  00000-0 -44583-1 0  9999,2 54078  53.2144  82.9478 0001142  73.7412 309.3992 15.18796455 14129,6887.6140000000005,94.812,510.265,508.692,0.0
54078.0,STARLINK-5138,PAYLOAD,2023-01-15 22:00:01,15.18162484,0.0001154,53.2146,81.4271,77.9941,328.402,-0.047526,-0.0091092,0.0,0 STARLINK-5138,1 54078U 22136AD  23015.91668981 -.00910920  00000-0 -47526-1 0  9995,2 54078  53.2146  81.4271 0001154  77.9941 328.4020 15.18162484  1301,6889.531,94.852,512.191,510.601,0.0
54078.0,STARLINK-5138,PAYLOAD,2023-01-16 08:00:01,15.17372767,0.0001367,53.2148,79.5313,80.0523,84.1665,-0.051077,-0.00953457,0.0,0 STARLINK-5138,1 54078U 22136AD  23016.33334491 -.00953457  00000-0 -51077-1 0  9996,2 54078  53.2148  79.5313 0001367  80.0523  84.1665 15.17372767 14249,6891.920999999999,94.901,514.729,512.844,0.0
